OBJECT_NAME,OBJECT_ID,EPOCH,MEAN_MOTION,ECCENTRICITY,INCLINATION,RA_OF_ASC_NODE,ARG_OF_PERICENTER,MEAN_ANOMALY,EPHEMERIS_TYPE,CLASSIFICATION_TYPE,NORAD_CAT_ID,ELEMENT_SET_NO,REV_AT_EPOCH,BSTAR,MEAN_MOTION_DOT,MEAN_MOTION_DDOT
FLOCK 4BE-29,2024-149AT,2026-05-13T11:55:02.083296,15.42977404,.0003818,97.3808,218.8800,80.5745,279.5934,0,U,60509,999,9706,.23383E-3,.10213E-3,0
TRANSPORTER-11 OBJECT AU,2024-149AU,2026-05-13T11:35:51.879840,15.39228002,.0004696,97.3730,216.9544,68.9191,291.2556,0,U,60510,999,9697,.24333E-3,.9386E-4,0
FLOCK 4BE-2,2024-149AV,2026-05-13T05:09:25.364160,15.49082723,.0003587,97.3823,219.6194,79.5379,280.6276,0,U,60511,999,9708,.53854E-3,.29203E-3,0
FLOCK 4BE-13,2024-149AW,2026-05-13T05:30:22.599936,15.40926586,.0004682,97.3720,217.3048,52.7691,307.3983,0,U,60512,999,9698,.21315E-3,.8685E-4,0
FLOCK 4BE-27,2024-149AX,2026-05-13T04:01:50.890368,15.33823123,.00053042,97.3828,215.0197,78.3162,281.8675,0,U,60513,999,9677,.18469823E-3,.5964E-4,0
FLOCK 4BE-9,2024-149AY,2026-05-13T17:20:20.271840,15.39736112,.0003951,97.3795,217.6893,81.4591,278.7102,0,U,60514,999,9701,.26772E-3,.1051E-3,0
FLOCK 4BE-6,2024-149BA,2026-05-13T17:24:07.222176,15.38608662,.0004726,97.3792,217.1130,77.2806,282.8967,0,U,60516,999,9697,.25579E-3,.9673E-4,0
FLOCK 4BE-14,2024-149BB,2026-05-13T11:29:42.634752,15.39899575,.0005509,97.3699,216.9741,74.2797,285.9056,0,U,60517,999,9698,.27906E-3,.11021E-3,0
FLOCK 4BE-1,2024-149BC,2026-05-13T17:23:43.228032,15.41416129,.0005045,97.3784,218.3777,74.0898,286.0904,0,U,60518,999,9706,.26832E-3,.11139E-3,0
FLOCK 4BE-28,2024-149BD,2026-05-13T17:24:08.360928,15.43674799,.0005109,97.3749,218.9978,68.4851,291.6941,0,U,60519,999,9712,.2848E-3,.12761E-3,0
IPERDRONE.0,2024-149BE,2026-05-13T05:56:46.146048,15.61960403,.0001534,97.3777,224.8724,39.3580,320.7789,0,U,60520,999,9745,.46927E-3,.40881E-3,0
TRANSPORTER-11 OBJECT BF,2024-149BF,2026-05-13T05:56:19.567680,15.72613137,.0000589,97.3783,226.8530,315.6836,44.4381,0,U,60521,999,9757,.64254E-3,.86595E-3,0
CONNECTA IOT-2,2024-149BG,2026-05-13T04:18:35.540928,15.23665884,.00081696,97.3843,211.8637,90.0860,270.1314,0,U,60522,999,9656,.12685402E-3,.2973E-4,0
PTD-R (TYVAK-0127),2024-149BH,2026-05-13T04:54:25.615296,15.87958571,.00014005,97.3772,230.8451,221.6540,138.4625,0,U,60523,999,9785,.46129505E-3,.125547E-2,0
CONNECTA IOT-4,2024-149BJ,2026-05-13T11:27:20.110176,15.40835509,.0006173,97.3801,217.4735,66.3061,293.8832,0,U,60524,999,9698,.2819E-3,.11486E-3,0
ORESAT0.5,2024-149BK,2026-05-13T10:53:35.702880,15.43756176,.0006114,97.3721,218.9600,56.6740,303.5092,0,U,60525,999,9711,.26901E-3,.12083E-3,0
DEIMOS,2024-149BL,2026-05-13T17:26:57.216768,15.42968954,.0006266,97.3783,219.3930,61.6163,298.5715,0,U,60526,999,9713,.27874E-3,.12196E-3,0
CUAVA-2,2024-149BM,2026-05-13T11:36:00.590688,15.35296630,.0007804,97.3728,214.9664,65.4706,294.7350,0,U,60527,999,9684,.22725E-3,.7715E-4,0
ERNST,2024-149BN,2026-05-13T04:23:11.310720,15.38264328,.00072202,97.3809,216.6668,70.1848,290.0175,0,U,60528,999,9689,.25675787E-3,.9606E-4,0
TORO,2024-149BQ,2026-05-13T04:47:19.060224,14.96287843,.00016014,97.6788,208.5228,96.3722,263.7682,0,U,60530,999,9472,.86426348E-4,.92E-5,0
HYPSO-2,2024-149BR,2026-05-13T16:23:08.723040,14.98611495,.0002351,97.6818,210.4480,109.7438,250.4038,0,U,60531,999,9488,.14465E-3,.1677E-4,0
LEMU NGE,2024-149BS,2026-05-13T10:40:45.551424,14.94804322,.0002548,97.6847,209.1091,112.0214,248.1278,0,U,60532,999,9476,.96811E-4,.997E-5,0
LEMUR-2-STELLA,2024-149BT,2026-05-13T20:28:58.302912,15.11026608,.0001912,97.6736,216.1811,122.8349,237.3065,0,U,60533,999,9531,.45818E-3,.7595E-4,0
SATELIOT_2,2024-149BU,2026-05-13T17:17:06.180288,14.96228537,.0001343,97.6833,209.3071,109.6703,250.4664,0,U,60534,999,9481,.5909E-4,.61E-5,0
NIGHTJAR,2024-149BV,2026-05-13T05:04:50.721024,14.98804080,.00013556,97.6836,210.4082,151.1300,208.9998,0,U,60535,999,13763,.14989502E-3,.1748E-4,0
LEMUR-2-MARHISYAM,2024-149BW,2026-05-13T05:24:44.572032,15.10506953,.0001549,97.6878,215.9632,187.9861,172.1344,0,U,60536,999,9520,.3684E-3,.6005E-4,0
SATELIOT_4,2024-149BX,2026-05-13T11:17:49.934112,14.96534973,.0003095,97.6737,208.6134,130.3833,229.7659,0,U,60537,999,9478,.10907E-3,.1183E-4,0
PICO-02A021,2024-149BY,2026-05-13T11:34:33.287808,15.02914671,.0006825,97.6770,212.6235,125.9573,234.2286,0,U,60538,999,9452,.23427E-3,.3085E-4,0
ICEYE-X43,2024-149BZ,2026-05-13T11:13:22.608192,14.99747683,.000453,97.6772,210.9120,197.5457,162.5610,0,U,60539,999,9491,.13389E-3,.1595E-4,0
HAWK-10A,2024-149CA,2026-05-13T04:45:56.913696,14.96398487,.00035608,97.6894,209.7129,167.1449,192.9864,0,U,60540,999,9475,.55990392E-4,.577E-5,0
